<?xml version="1.0" encoding="UTF-8"?>
<gpx version="1.1" creator="Waypoint sample" xmlns="http://www.topografix.com/GPX/1/1">
  <metadata><name>Big Sur Ridge Ride</name></metadata>
  <trk>
    <name>Big Sur Ridge Ride</name>
    <type>cycling</type>
    <trkseg>
      <trkpt lat="36.2700" lon="-121.8070"><ele>41</ele><time>2026-05-18T15:00:00Z</time></trkpt>
      <trkpt lat="36.2740" lon="-121.8010"><ele>76</ele><time>2026-05-18T15:07:00Z</time></trkpt>
      <trkpt lat="36.2790" lon="-121.7970"><ele>109</ele><time>2026-05-18T15:14:00Z</time></trkpt>
      <trkpt lat="36.2850" lon="-121.7920"><ele>152</ele><time>2026-05-18T15:21:00Z</time></trkpt>
      <trkpt lat="36.2900" lon="-121.7850"><ele>205</ele><time>2026-05-18T15:28:00Z</time></trkpt>
      <trkpt lat="36.2960" lon="-121.7790"><ele>266</ele><time>2026-05-18T15:35:00Z</time></trkpt>
      <trkpt lat="36.3040" lon="-121.7730"><ele>333</ele><time>2026-05-18T15:42:00Z</time></trkpt>
      <trkpt lat="36.3130" lon="-121.7660"><ele>401</ele><time>2026-05-18T15:49:00Z</time></trkpt>
      <trkpt lat="36.3210" lon="-121.7580"><ele>465</ele><time>2026-05-18T15:56:00Z</time></trkpt>
      <trkpt lat="36.3270" lon="-121.7490"><ele>512</ele><time>2026-05-18T16:03:00Z</time></trkpt>
      <trkpt lat="36.3310" lon="-121.7390"><ele>548</ele><time>2026-05-18T16:10:00Z</time></trkpt>
      <trkpt lat="36.3290" lon="-121.7290"><ele>533</ele><time>2026-05-18T16:17:00Z</time></trkpt>
      <trkpt lat="36.3240" lon="-121.7190"><ele>501</ele><time>2026-05-18T16:24:00Z</time></trkpt>
      <trkpt lat="36.3170" lon="-121.7100"><ele>462</ele><time>2026-05-18T16:31:00Z</time></trkpt>
      <trkpt lat="36.3090" lon="-121.7020"><ele>425</ele><time>2026-05-18T16:38:00Z</time></trkpt>
      <trkpt lat="36.3000" lon="-121.6970"><ele>376</ele><time>2026-05-18T16:45:00Z</time></trkpt>
      <trkpt lat="36.2920" lon="-121.6940"><ele>310</ele><time>2026-05-18T16:52:00Z</time></trkpt>
      <trkpt lat="36.2840" lon="-121.6970"><ele>242</ele><time>2026-05-18T16:59:00Z</time></trkpt>
      <trkpt lat="36.2780" lon="-121.7030"><ele>179</ele><time>2026-05-18T17:06:00Z</time></trkpt>
      <trkpt lat="36.2730" lon="-121.7110"><ele>120</ele><time>2026-05-18T17:13:00Z</time></trkpt>
      <trkpt lat="36.2690" lon="-121.7200"><ele>73</ele><time>2026-05-18T17:20:00Z</time></trkpt>
    </trkseg>
  </trk>
</gpx>

